2023-003C               
1 55135U 23003C   26201.97147333  .00017559  00000+0  24441-3 0  9999
2 55135  97.1505 278.5900 0002563  41.3969 318.7480 15.57012198197532
2023-003E               
1 55137U 23003E   26201.94609850  .00017913  00000+0  25395-3 0  9998
2 55137  97.1413 277.3745 0002641  21.1343 339.0021 15.56510945197512
ONEWEB-0532             
1 55140U 23004A   26201.90003949  .00000043  00000+0  77427-4 0  9996
2 55140  87.9154 359.1572 0001845  83.4137 276.7205 13.17648766172027
ONEWEB-0533             
1 55141U 23004B   26201.92552979  .00000427  00000+0  11524-2 0  9991
2 55141  87.8972 343.9629 0001656  98.2208 261.9108 13.12442283172481
ONEWEB-0541             
1 55142U 23004C   26201.90547443 -.00000263  00000+0 -77801-3 0  9991
2 55142  87.8896  14.3462 0001982  88.5863 271.5492 13.11418229170362
ONEWEB-0543             
1 55143U 23004D   26201.85303284  .00000061  00000+0  12122-3 0  9998
2 55143  87.9191 328.7741 0001945 105.7937 254.3409 13.18686927174132
ONEWEB-0544             
1 55144U 23004E   26201.84628868  .00000004  00000+0 -21670-4 0  9993
2 55144  87.9193 328.7748 0002112 101.4382 258.6988 13.18684630174134
ONEWEB-0560             
1 55145U 23004F   26201.91542896  .00000055  00000+0  10559-3 0  9996
2 55145  87.9192 328.7507 0002131 104.1459 255.9910 13.18685792174150
ONEWEB-0565             
1 55146U 23004G   26201.90868354  .00000017  00000+0  10819-4 0  9994
2 55146  87.9183 328.7766 0002260  93.0740 267.0651 13.18685214174144
ONEWEB-0567             
1 55147U 23004H   26201.90193090 -.00000257  00000+0 -68517-3 0  9998
2 55147  87.9194 328.7651 0002247  96.7591 263.3796 13.18685606174143
ONEWEB-0569             
1 55148U 23004J   26201.83098960  .00000353  00000+0  93186-3 0  9996
2 55148  87.8990 313.5280 0002799 108.0571 252.0864 13.13470361174599
ONEWEB-0570             
1 55149U 23004K   26201.89350377  .00000019  00000+0  16277-4 0  9992
2 55149  87.9192 328.7643 0001925  86.2560 273.8793 13.18684797174138
ONEWEB-0571             
1 55150U 23004L   26201.88677207 -.00000055  00000+0 -17186-3 0  9998
2 55150  87.9193 328.7654 0003156  95.5005 264.6487 13.18686093174148
ONEWEB-0572             
1 55151U 23004M   26201.93124812  .00000011  00000+0 -39625-5 0  9999
2 55151  87.9152 359.1527 0002004  91.5542 268.5819 13.17647609171928
ONEWEB-0573             
1 55152U 23004N   26201.88001241 -.00000047  00000+0 -15211-3 0  9997
2 55152  87.9193 328.7685 0002736  92.4028 267.7417 13.18683928174138
ONEWEB-0588             
1 55153U 23004P   26201.87327170  .00000036  00000+0  57813-4 0  9990
2 55153  87.9191 328.7692 0002033  84.8995 275.2370 13.18686611174137
ONEWEB-0598             
1 55154U 23004Q   26201.88342941 -.00000384  00000+0 -11195-2 0  9994
2 55154  87.8889  14.3585 0002555  95.8489 264.2930 13.11415443170311
ONEWEB-0599             
1 55155U 23004R   26201.89243081  .00000028  00000+0  39316-4 0  9991
2 55155  87.9152 359.1590 0001947 100.9004 259.2346 13.17647689171925
ONEWEB-0614             
1 55156U 23004S   26201.87834339 -.00000204  00000+0 -61119-3 0  9995
2 55156  87.8886  14.3673 0001682  85.6928 274.4393 13.11415253170251
ONEWEB-0616             
1 55157U 23004T   26201.93461660 -.00000011  00000+0 -61651-4 0  9994
2 55157  87.9153 359.1547 0002033 121.2911 238.8420 13.17647758172148
ONEWEB-0617             
1 55158U 23004U   26201.86647078  .00000298  00000+0  80560-3 0  9990
2 55158  87.8893  14.3627 0001786  80.3362 279.7968 13.11416216170277
ONEWEB-0618             
1 55159U 23004V   26201.91551625  .00004425  00000+0  24543-3 0  9994
2 55159  86.9106 163.9395 0013120 155.3167 204.8704 15.13437732187364
ONEWEB-0619             
1 55160U 23004W   26201.89074217  .00000030  00000+0  43468-4 0  9996
2 55160  87.9166 359.1472 0001424  95.3666 264.7628 13.17647992172030
ONEWEB-0620             
1 55161U 23004X   26201.86139368  .00000463  00000+0  12700-2 0  9996
2 55161  87.8886  14.3703 0002099  89.6083 270.5285 13.11416146170248
ONEWEB-0621             
1 55162U 23004Y   26201.88851673 -.00000477  00000+0 -13810-2 0  9999
2 55162  87.8896  14.3568 0001643  86.4566 273.6750 13.11415879170225
ONEWEB-0622             
1 55163U 23004Z   26201.89360235 -.00000548  00000+0 -15822-2 0  9994
2 55163  87.8898  14.3587 0001989  70.3497 289.7845 13.11416841170219
ONEWEB-0623             
1 55164U 23004AA  26201.88568830  .00000016  00000+0  71177-5 0  9991
2 55164  87.9151 359.1743 0001412  71.2178 288.9106 13.17648466172022
ONEWEB-0624             
1 55165U 23004AB  26201.87925726 -.00000318  00000+0 -91338-3 0  9998
2 55165  87.8973 343.8810 0001745  92.4941 267.6387 13.12928441172496
ONEWEB-0625             
1 55166U 23004AC  26201.87555925  .00000027  00000+0  35579-4 0  9990
2 55166  87.9154 359.1726 0001779  98.9905 261.1428 13.17647511172017
ONEWEB-0626             
1 55167U 23004AD  26201.86544633 -.00000032  00000+0 -11613-3 0  9994
2 55167  87.9153 359.1743 0002188  96.8775 263.2605 13.17647875172016
